{
  "type": "FeatureCollection",
  "features": [
    {
      "type": "Feature",
      "properties": {
        "norad_id": 29486,
        "name": "GPS BIIRM-2 (PRN 31)",
        "group": "gps-ops",
        "lat": -15.083490553892172,
        "lon": 147.409126915097,
        "alt_km": 20088.539421921105,
        "timestamp": "2025-12-20T11:30:28.635736+00:00",
        "meta_object_name": "GPS BIIRM-2 (PRN 31)",
        "meta_object_id": "2006-042A",
        "meta_epoch": "2025-12-19T11:20:28.184352",
        "meta_mean_motion": 2.00553919,
        "meta_eccentricity": 0.0107309,
        "meta_inclination": 54.695,
        "meta_ra_of_asc_node": 158.4736,
        "meta_arg_of_pericenter": 52.1217,
        "meta_mean_anomaly": 283.3875,
        "meta_ephemeris_type": 0,
        "meta_classification_type": "U",
        "meta_norad_cat_id": 29486,
        "meta_element_set_no": 999,
        "meta_rev_at_epoch": 14078,
        "meta_bstar": 0,
        "meta_mean_motion_dot": 6.9e-07,
        "meta_mean_motion_ddot": 0,
        "tle_line1": "1 29486U 06042A   25353.47254843  .00000069  00000+0  00000+0 0  9999",
        "tle_line2": "2 29486  54.6950 158.4736 0107309  52.1217 283.3875  2.00553919140782"
      },
      "geometry": {
        "type": "Point",
        "coordinates": [
          147.409126915097,
          -15.083490553892172
        ]
      }
    },
    {
      "type": "Feature",
      "properties": {
        "norad_id": 29601,
        "name": "GPS BIIRM-3 (PRN 12)",
        "group": "gps-ops",
        "lat": 31.696776075718123,
        "lon": -113.2356786708693,
        "alt_km": 20018.683677523255,
        "timestamp": "2025-12-20T11:30:28.635747+00:00",
        "meta_object_name": "GPS BIIRM-3 (PRN 12)",
        "meta_object_id": "2006-052A",
        "meta_epoch": "2025-12-19T22:13:29.754048",
        "meta_mean_motion": 2.00574126,
        "meta_eccentricity": 0.0087964,
        "meta_inclination": 54.9691,
        "meta_ra_of_asc_node": 221.1129,
        "meta_arg_of_pericenter": 87.52,
        "meta_mean_anomaly": 273.5849,
        "meta_ephemeris_type": 0,
        "meta_classification_type": "U",
        "meta_norad_cat_id": 29601,
        "meta_element_set_no": 999,
        "meta_rev_at_epoch": 13981,
        "meta_bstar": 0,
        "meta_mean_motion_dot": 7.6e-07,
        "meta_mean_motion_ddot": 0,
        "tle_line1": "1 29601U 06052A   25353.92603882  .00000076  00000+0  00000+0 0  9998",
        "tle_line2": "2 29601  54.9691 221.1129 0087964  87.5200 273.5849  2.00574126139815"
      },
      "geometry": {
        "type": "Point",
        "coordinates": [
          -113.2356786708693,
          31.696776075718123
        ]
      }
    },
    {
      "type": "Feature",
      "properties": {
        "norad_id": 32260,
        "name": "GPS BIIRM-4 (PRN 15)",
        "group": "gps-ops",
        "lat": -1.931767696699586,
        "lon": -91.15124905763005,
        "alt_km": 20229.279266723366,
        "timestamp": "2025-12-20T11:30:28.635759+00:00",
        "meta_object_name": "GPS BIIRM-4 (PRN 15)",
        "meta_object_id": "2007-047A",
        "meta_epoch": "2025-12-19T17:36:20.094624",
        "meta_mean_motion": 2.00564284,
        "meta_eccentricity": 0.0164062,
        "meta_inclination": 53.9598,
        "meta_ra_of_asc_node": 87.4696,
        "meta_arg_of_pericenter": 85.3303,
        "meta_mean_anomaly": 276.5412,
        "meta_ephemeris_type": 0,
        "meta_classification_type": "U",
        "meta_norad_cat_id": 32260,
        "meta_element_set_no": 999,
        "meta_rev_at_epoch": 13321,
        "meta_bstar": 0,
        "meta_mean_motion_dot": -3.5e-07,
        "meta_mean_motion_ddot": 0,
        "tle_line1": "1 32260U 07047A   25353.73356591 -.00000035  00000+0  00000+0 0  9995",
        "tle_line2": "2 32260  53.9598  87.4696 0164062  85.3303 276.5412  2.00564284133213"
      },
      "geometry": {
        "type": "Point",
        "coordinates": [
          -91.15124905763005,
          -1.931767696699586
        ]
      }
    },
    {
      "type": "Feature",
      "properties": {
        "norad_id": 32384,
        "name": "GPS BIIRM-5 (PRN 29)",
        "group": "gps-ops",
        "lat": -38.83867096942492,
        "lon": -112.70741487591684,
        "alt_km": 20258.341267111537,
        "timestamp": "2025-12-20T11:30:28.635771+00:00",
        "meta_object_name": "GPS BIIRM-5 (PRN 29)",
        "meta_object_id": "2007-062A",
        "meta_epoch": "2025-12-19T04:08:10.010976",
        "meta_mean_motion": 2.00577702,
        "meta_eccentricity": 0.00322663,
        "meta_inclination": 55.1765,
        "meta_ra_of_asc_node": 281.388,
        "meta_arg_of_pericenter": 162.2119,
        "meta_mean_anomaly": 283.9132,
        "meta_ephemeris_type": 0,
        "meta_classification_type": "U",
        "meta_norad_cat_id": 32384,
        "meta_element_set_no": 999,
        "meta_rev_at_epoch": 13190,
        "meta_bstar": 0,
        "meta_mean_motion_dot": -3.8e-07,
        "meta_mean_motion_ddot": 0,
        "tle_line1": "1 32384U 07062A   25353.17233809 -.00000038  00000+0  00000+0 0  9996",
        "tle_line2": "2 32384  55.1765 281.3880 0032266 162.2119 283.9132  2.00577702131904"
      },
      "geometry": {
        "type": "Point",
        "coordinates": [
          -112.70741487591684,
          -38.83867096942492
        ]
      }
    },
    {
      "type": "Feature",
      "properties": {
        "norad_id": 32711,
        "name": "GPS BIIRM-6 (PRN 07)",
        "group": "gps-ops",
        "lat": -40.96925319642332,
        "lon": 15.408471409358878,
        "alt_km": 19658.81371249132,
        "timestamp": "2025-12-20T11:30:28.635782+00:00",
        "meta_object_name": "GPS BIIRM-6 (PRN 07)",
        "meta_object_id": "2008-012A",
        "meta_epoch": "2025-12-19T15:41:26.858112",
        "meta_mean_motion": 2.00565937,
        "meta_eccentricity": 0.0202735,
        "meta_inclination": 54.4779,
        "meta_ra_of_asc_node": 157.0969,
        "meta_arg_of_pericenter": 245.0276,
        "meta_mean_anomaly": 112.8468,
        "meta_ephemeris_type": 0,
        "meta_classification_type": "U",
        "meta_norad_cat_id": 32711,
        "meta_element_set_no": 999,
        "meta_rev_at_epoch": 13015,
        "meta_bstar": 0,
        "meta_mean_motion_dot": 6.7e-07,
        "meta_mean_motion_ddot": 0,
        "tle_line1": "1 32711U 08012A   25353.65378308  .00000067  00000+0  00000+0 0  9994",
        "tle_line2": "2 32711  54.4779 157.0969 0202735 245.0276 112.8468  2.00565937130151"
      },
      "geometry": {
        "type": "Point",
        "coordinates": [
          15.408471409358878,
          -40.96925319642332
        ]
      }
    },
    {
      "type": "Feature",
      "properties": {
        "norad_id": 35752,
        "name": "GPS BIIRM-8 (PRN 05)",
        "group": "gps-ops",
        "lat": -52.943345663904154,
        "lon": -82.61540886760862,
        "alt_km": 20323.998553268448,
        "timestamp": "2025-12-20T11:30:28.635793+00:00",
        "meta_object_name": "GPS BIIRM-8 (PRN 05)",
        "meta_object_id": "2009-043A",
        "meta_epoch": "2025-12-20T02:09:52.509312",
        "meta_mean_motion": 2.00565329,
        "meta_eccentricity": 0.0051647,
        "meta_inclination": 56.096,
        "meta_ra_of_asc_node": 34.4932,
        "meta_arg_of_pericenter": 81.7821,
        "meta_mean_anomaly": 251.1308,
        "meta_ephemeris_type": 0,
        "meta_classification_type": "U",
        "meta_norad_cat_id": 35752,
        "meta_element_set_no": 999,
        "meta_rev_at_epoch": 11976,
        "meta_bstar": 0,
        "meta_mean_motion_dot": -6.1e-07,
        "meta_mean_motion_ddot": 0,
        "tle_line1": "1 35752U 09043A   25354.09019108 -.00000061  00000+0  00000+0 0  9991",
        "tle_line2": "2 35752  56.0960  34.4932 0051647  81.7821 251.1308  2.00565329119761"
      },
      "geometry": {
        "type": "Point",
        "coordinates": [
          -82.61540886760862,
          -52.943345663904154
        ]
      }
    },
    {
      "type": "Feature",
      "properties": {
        "norad_id": 36585,
        "name": "GPS BIIF-1  (PRN 25)",
        "group": "gps-ops",
        "lat": 8.80408993363947,
        "lon": -137.8312243257159,
        "alt_km": 19983.06869061091,
        "timestamp": "2025-12-20T11:30:28.635805+00:00",
        "meta_object_name": "GPS BIIF-1  (PRN 25)",
        "meta_object_id": "2010-022A",
        "meta_epoch": "2025-12-20T02:58:58.243008",
        "meta_mean_motion": 2.00553637,
        "meta_eccentricity": 0.0126416,
        "meta_inclination": 54.299,
        "meta_ra_of_asc_node": 215.776,
        "meta_arg_of_pericenter": 65.1663,
        "meta_mean_anomaly": 50.4936,
        "meta_ephemeris_type": 0,
        "meta_classification_type": "U",
        "meta_norad_cat_id": 36585,
        "meta_element_set_no": 999,
        "meta_rev_at_epoch": 11400,
        "meta_bstar": 0,
        "meta_mean_motion_dot": 8e-07,
        "meta_mean_motion_ddot": 0,
        "tle_line1": "1 36585U 10022A   25354.12428522  .00000080  00000+0  00000+0 0  9993",
        "tle_line2": "2 36585  54.2990 215.7760 0126416  65.1663  50.4936  2.00553637114007"
      },
      "geometry": {
        "type": "Point",
        "coordinates": [
          -137.8312243257159,
          8.80408993363947
        ]
      }
    }
  ]
}